{"type": "FeatureCollection", "features": [{"type": "Feature", "properties": {"norad_id": 26766, "name": "INTELSAT 10 (IS-10)", "group": "intelsat", "lat": 7.268070385250874, "lon": 117.63272946848086, "alt_km": 36159.26850255536, "timestamp": "2025-12-27T20:30:58.954693+00:00", "meta": {"OBJECT_NAME": "INTELSAT 10 (IS-10)", "OBJECT_ID": "2001-019A", "EPOCH": "2025-12-27T04:51:38.509056", "MEAN_MOTION": 0.9907171, "ECCENTRICITY": 0.0008098, "INCLINATION": 8.662, "RA_OF_ASC_NODE": 61.0096, "ARG_OF_PERICENTER": 230.2441, "MEAN_ANOMALY": 314.0374, "EPHEMERIS_TYPE": 0, "CLASSIFICATION_TYPE": "U", "NORAD_CAT_ID": 26766, "ELEMENT_SET_NO": 999, "REV_AT_EPOCH": 4387, "BSTAR": 0, "MEAN_MOTION_DOT": 6.5e-07, "MEAN_MOTION_DDOT": 0}, "tle": {"line1": "1 26766U 01019A   25361.20252904  .00000065  00000+0  00000+0 0  9998", "line2": "2 26766   8.6620  61.0096 0008098 230.2441 314.0374  0.99071710 43872"}}, "geometry": {"type": "Point", "coordinates": [117.63272946848086, 7.268070385250874]}}, {"type": "Feature", "properties": {"norad_id": 26900, "name": "INTELSAT 902 (IS-902)", "group": "intelsat", "lat": -5.600967492955491, "lon": -5.823407926290053, "alt_km": 35788.45290880973, "timestamp": "2025-12-27T20:30:58.954717+00:00", "meta": {"OBJECT_NAME": "INTELSAT 902 (IS-902)", "OBJECT_ID": "2001-039A", "EPOCH": "2025-12-15T13:09:02.081664", "MEAN_MOTION": 1.0027087, "ECCENTRICITY": 0.00045028, "INCLINATION": 5.6536, "RA_OF_ASC_NODE": 74.0372, "ARG_OF_PERICENTER": 189.6359, "MEAN_ANOMALY": 327.9329, "EPHEMERIS_TYPE": 0, "CLASSIFICATION_TYPE": "U", "NORAD_CAT_ID": 26900, "ELEMENT_SET_NO": 999, "REV_AT_EPOCH": 8885, "BSTAR": 0, "MEAN_MOTION_DOT": -2.65e-06, "MEAN_MOTION_DDOT": 0}, "tle": {"line1": "1 26900U 01039A   25349.54794076 -.00000265  00000+0  00000+0 0  9997", "line2": "2 26900   5.6536  74.0372 0004502 189.6359 327.9329  1.00270870 88858"}}, "geometry": {"type": "Point", "coordinates": [-5.823407926290053, -5.600967492955491]}}, {"type": "Feature", "properties": {"norad_id": 27380, "name": "INTELSAT 904 (IS-904)", "group": "intelsat", "lat": -5.526998045274108, "lon": 13.030033472630276, "alt_km": 35781.384543271546, "timestamp": "2025-12-27T20:30:58.954734+00:00", "meta": {"OBJECT_NAME": "INTELSAT 904 (IS-904)", "OBJECT_ID": "2002-007A", "EPOCH": "2025-12-27T11:08:23.517312", "MEAN_MOTION": 1.00272058, "ECCENTRICITY": 0.0002163, "INCLINATION": 6.4895, "RA_OF_ASC_NODE": 71.2606, "ARG_OF_PERICENTER": 247.9862, "MEAN_ANOMALY": 272.5687, "EPHEMERIS_TYPE": 0, "CLASSIFICATION_TYPE": "U", "NORAD_CAT_ID": 27380, "ELEMENT_SET_NO": 999, "REV_AT_EPOCH": 5004, "BSTAR": 0, "MEAN_MOTION_DOT": -2.06e-06, "MEAN_MOTION_DDOT": 0}, "tle": {"line1": "1 27380U 02007A   25361.46416108 -.00000206  00000+0  00000+0 0  9993", "line2": "2 27380   6.4895  71.2606 0002163 247.9862 272.5687  1.00272058 50047"}}, "geometry": {"type": "Point", "coordinates": [13.030033472630276, -5.526998045274108]}}, {"type": "Feature", "properties": {"norad_id": 27426, "name": "DIRECTV 5 (TEMPO 1)", "group": "intelsat", "lat": -2.6711911697755757, "lon": -65.87420296231907, "alt_km": 35771.94286207075, "timestamp": "2025-12-27T20:30:58.954747+00:00", "meta": {"OBJECT_NAME": "DIRECTV 5 (TEMPO 1)", "OBJECT_ID": "2002-023A", "EPOCH": "2025-12-27T09:38:01.017024", "MEAN_MOTION": 1.00271385, "ECCENTRICITY": 0.0003496, "INCLINATION": 4.4376, "RA_OF_ASC_NODE": 77.4783, "ARG_OF_PERICENTER": 207.4741, "MEAN_ANOMALY": 205.5645, "EPHEMERIS_TYPE": 0, "CLASSIFICATION_TYPE": "U", "NORAD_CAT_ID": 27426, "ELEMENT_SET_NO": 999, "REV_AT_EPOCH": 8640, "BSTAR": 0, "MEAN_MOTION_DOT": -3.6e-07, "MEAN_MOTION_DDOT": 0}, "tle": {"line1": "1 27426U 02023A   25361.40140066 -.00000036  00000+0  00000+0 0  9994", "line2": "2 27426   4.4376  77.4783 0003496 207.4741 205.5645  1.00271385 86402"}}, "geometry": {"type": "Point", "coordinates": [-65.87420296231907, -2.6711911697755757]}}, {"type": "Feature", "properties": {"norad_id": 27438, "name": "INTELSAT 905 (IS-905)", "group": "intelsat", "lat": -1.6787771534014093, "lon": -92.92955563392728, "alt_km": 35774.018090247366, "timestamp": "2025-12-27T20:30:58.954761+00:00", "meta": {"OBJECT_NAME": "INTELSAT 905 (IS-905)", "OBJECT_ID": "2002-027A", "EPOCH": "2025-12-23T05:41:27.377952", "MEAN_MOTION": 1.00273243, "ECCENTRICITY": 0.00027491, "INCLINATION": 6.3102, "RA_OF_ASC_NODE": 71.9349, "ARG_OF_PERICENTER": 206.5226, "MEAN_ANOMALY": 121.7385, "EPHEMERIS_TYPE": 0, "CLASSIFICATION_TYPE": "U", "NORAD_CAT_ID": 27438, "ELEMENT_SET_NO": 999, "REV_AT_EPOCH": 4959, "BSTAR": 0, "MEAN_MOTION_DOT": 1.12e-06, "MEAN_MOTION_DDOT": 0}, "tle": {"line1": "1 27438U 02027A   25357.23712243  .00000112  00000+0  00000+0 0  9993", "line2": "2 27438   6.3102  71.9349 0002749 206.5226 121.7385  1.00273243 49592"}}, "geometry": {"type": "Point", "coordinates": [-92.92955563392728, -1.6787771534014093]}}, {"type": "Feature", "properties": {"norad_id": 27445, "name": "GALAXY 3C (G-3C)", "group": "intelsat", "lat": -2.510861448672163, "lon": -50.57497809713663, "alt_km": 35789.739326538154, "timestamp": "2025-12-27T20:30:58.954773+00:00", "meta": {"OBJECT_NAME": "GALAXY 3C (G-3C)", "OBJECT_ID": "2002-030A", "EPOCH": "2025-12-27T08:56:25.872288", "MEAN_MOTION": 1.00271205, "ECCENTRICITY": 0.0001005, "INCLINATION": 3.2981, "RA_OF_ASC_NODE": 80.349, "ARG_OF_PERICENTER": 91.0698, "MEAN_ANOMALY": 323.9371, "EPHEMERIS_TYPE": 0, "CLASSIFICATION_TYPE": "U", "NORAD_CAT_ID": 27445, "ELEMENT_SET_NO": 999, "REV_AT_EPOCH": 4477, "BSTAR": 0, "MEAN_MOTION_DOT": -1.31e-06, "MEAN_MOTION_DDOT": 0}, "tle": {"line1": "1 27445U 02030A   25361.37252167 -.00000131  00000+0  00000+0 0  9991", "line2": "2 27445   3.2981  80.3490 0001005  91.0698 323.9371  1.00271205 44778"}}, "geometry": {"type": "Point", "coordinates": [-50.57497809713663, -2.510861448672163]}}, {"type": "Feature", "properties": {"norad_id": 27513, "name": "INTELSAT 906 (IS-906)", "group": "intelsat", "lat": 2.968524984404628, "lon": 108.31779649021192, "alt_km": 35811.46682779201, "timestamp": "2025-12-27T20:30:58.954786+00:00", "meta": {"OBJECT_NAME": "INTELSAT 906 (IS-906)", "OBJECT_ID": "2002-041A", "EPOCH": "2025-12-27T04:44:52.745280", "MEAN_MOTION": 1.00271138, "ECCENTRICITY": 0.0006141, "INCLINATION": 5.3666, "RA_OF_ASC_NODE": 75.0601, "ARG_OF_PERICENTER": 203.6338, "MEAN_ANOMALY": 312.5849, "EPHEMERIS_TYPE": 0, "CLASSIFICATION_TYPE": "U", "NORAD_CAT_ID": 27513, "ELEMENT_SET_NO": 999, "REV_AT_EPOCH": 8530, "BSTAR": 0, "MEAN_MOTION_DOT": 3.3e-07, "MEAN_MOTION_DDOT": 0}, "tle": {"line1": "1 27513U 02041A   25361.19783270  .00000033  00000+0  00000+0 0  9993", "line2": "2 27513   5.3666  75.0601 0006141 203.6338 312.5849  1.00271138 85303"}}, "geometry": {"type": "Point", "coordinates": [108.31779649021192, 2.968524984404628]}}, {"type": "Feature", "properties": {"norad_id": 27954, "name": "GALAXY 13 (HORIZONS-1)", "group": "intelsat", "lat": 0.1854125154628119, "lon": -105.71020540665995, "alt_km": 35776.65590154743, "timestamp": "2025-12-27T20:30:58.954799+00:00", "meta": {"OBJECT_NAME": "GALAXY 13 (HORIZONS-1)", "OBJECT_ID": "2003-044A", "EPOCH": "2025-12-27T10:34:34.255200", "MEAN_MOTION": 1.00272925, "ECCENTRICITY": 0.0002286, "INCLINATION": 0.9749, "RA_OF_ASC_NODE": 86.2819, "ARG_OF_PERICENTER": 189.0112, "MEAN_ANOMALY": 189.4975, "EPHEMERIS_TYPE": 0, "CLASSIFICATION_TYPE": "U", "NORAD_CAT_ID": 27954, "ELEMENT_SET_NO": 999, "REV_AT_EPOCH": 4485, "BSTAR": 0, "MEAN_MOTION_DOT": 1.55e-06, "MEAN_MOTION_DDOT": 0}, "tle": {"line1": "1 27954U 03044A   25361.44067425  .00000155  00000+0  00000+0 0  9996", "line2": "2 27954   0.9749  86.2819 0002286 189.0112 189.4975  1.00272925 44854"}}, "geometry": {"type": "Point", "coordinates": [-105.71020540665995, 0.1854125154628119]}}, {"type": "Feature", "properties": {"norad_id": 28358, "name": "INTELSAT 10-02", "group": "intelsat", "lat": 0.004919923146555863, "lon": 43.36923091106321, "alt_km": 35787.51962612515, "timestamp": "2025-12-27T20:30:58.954811+00:00", "meta": {"OBJECT_NAME": "INTELSAT 10-02", "OBJECT_ID": "2004-022A", "EPOCH": "2025-12-27T04:26:17.024064", "MEAN_MOTION": 1.00270123, "ECCENTRICITY": 0.0001282, "INCLINATION": 0.0163, "RA_OF_ASC_NODE": 51.3497, "ARG_OF_PERICENTER": 251.566, "MEAN_ANOMALY": 218.6151, "EPHEMERIS_TYPE": 0, "CLASSIFICATION_TYPE": "U", "NORAD_CAT_ID": 28358, "ELEMENT_SET_NO": 999, "REV_AT_EPOCH": 7883, "BSTAR": 0, "MEAN_MOTION_DOT": 1.1e-07, "MEAN_MOTION_DDOT": 0}, "tle": {"line1": "1 28358U 04022A   25361.18491926  .00000011  00000+0  00000+0 0  9991", "line2": "2 28358   0.0163  51.3497 0001282 251.5660 218.6151  1.00270123 78831"}}, "geometry": {"type": "Point", "coordinates": [43.36923091106321, 0.004919923146555863]}}, {"type": "Feature", "properties": {"norad_id": 28626, "name": "XM-3 (RHYTHM)", "group": "intelsat", "lat": 0.03471820655323005, "lon": 86.77265505882602, "alt_km": 36161.16905374356, "timestamp": "2025-12-27T20:30:58.954823+00:00", "meta": {"OBJECT_NAME": "XM-3 (RHYTHM)", "OBJECT_ID": "2005-008A", "EPOCH": "2025-12-27T11:29:58.948800", "MEAN_MOTION": 0.98950766, "ECCENTRICITY": 0.0002317, "INCLINATION": 0.2107, "RA_OF_ASC_NODE": 82.3688, "ARG_OF_PERICENTER": 270.4449, "MEAN_ANOMALY": 320.1063, "EPHEMERIS_TYPE": 0, "CLASSIFICATION_TYPE": "U", "NORAD_CAT_ID": 28626, "ELEMENT_SET_NO": 999, "REV_AT_EPOCH": 4089, "BSTAR": 0, "MEAN_MOTION_DOT": 6.9e-07, "MEAN_MOTION_DDOT": 0}, "tle": {"line1": "1 28626U 05008A   25361.47915450  .00000069  00000+0  00000+0 0  9992", "line2": "2 28626   0.2107  82.3688 0002317 270.4449 320.1063  0.98950766 40890"}}, "geometry": {"type": "Point", "coordinates": [86.77265505882602, 0.03471820655323005]}}]}